start=new Date('2022-02-12T00:00:00.000Z').valueOf();
sats=[{"INCLINATION":"53.0543","MEAN_MOTION_DDOT":"0.0000000000000","SITE":"AFETR","MEAN_MOTION_DOT":"0.00008645","TLE_LINE2":"2 46129  53.0543 112.9432 0001573  66.5181 293.5973 15.06427222 82479","CENTER_NAME":"EARTH","SEMIMAJOR_AXIS":"6925.265","ARG_OF_PERICENTER":"66.5181","TIME_SYSTEM":"UTC","BSTAR":"0.00059813000000","COUNTRY_CODE":"US","REV_AT_EPOCH":"8247","DECAY_DATE":null,"PERIOD":"95.590","RA_OF_ASC_NODE":"112.9432","GP_ID":"195751680","ELEMENT_SET_NO":"999","MEAN_ELEMENT_THEORY":"SGP4","LAUNCH_DATE":"2020-08-18","TLE_LINE1":"1 46129U 20057N   22042.48649540  .00008645  00000-0  59813-3 0  9998","CLASSIFICATION_TYPE":"U","NORAD_CAT_ID":"46129","RCS_SIZE":"LARGE","EPHEMERIS_TYPE":"0","OBJECT_NAME":"STARLINK-1623","PERIAPSIS":"546.041","ECCENTRICITY":"0.00015730","MEAN_ANOMALY":"293.5973","EPOCH":"2022-02-11T11:40:33.202560","MEAN_MOTION":"15.06427222","REF_FRAME":"TEME","APOAPSIS":"548.219","FILE":"3297735","OBJECT_TYPE":"PAYLOAD","OBJECT_ID":"2020-057N"},{"APOAPSIS":"548.140","FILE":"3297771","OBJECT_TYPE":"PAYLOAD","OBJECT_ID":"2020-057P","MEAN_MOTION":"15.06412457","REF_FRAME":"TEME","PERIAPSIS":"546.211","OBJECT_NAME":"STARLINK-1624","ECCENTRICITY":"0.00013930","MEAN_ANOMALY":"288.8308","EPOCH":"2022-02-11T14:03:50.965920","LAUNCH_DATE":"2020-08-18","TLE_LINE1":"1 46130U 20057P   22042.58600655  .00002947  00000-0  21656-3 0  9998","CLASSIFICATION_TYPE":"U","NORAD_CAT_ID":"46130","RCS_SIZE":"LARGE","EPHEMERIS_TYPE":"0","PERIOD":"95.591","DECAY_DATE":null,"RA_OF_ASC_NODE":"112.4837","GP_ID":"195756893","ELEMENT_SET_NO":"999","MEAN_ELEMENT_THEORY":"SGP4","BSTAR":"0.00021656000000","REV_AT_EPOCH":"8314","COUNTRY_CODE":"US","CENTER_NAME":"EARTH","SEMIMAJOR_AXIS":"6925.310","ARG_OF_PERICENTER":"71.2832","TIME_SYSTEM":"UTC","INCLINATION":"53.0536","MEAN_MOTION_DDOT":"0.0000000000000","SITE":"AFETR","MEAN_MOTION_DOT":"0.00002947","TLE_LINE2":"2 46130  53.0536 112.4837 0001393  71.2832 288.8308 15.06412457 83141"},{"MEAN_ELEMENT_THEORY":"SGP4","ELEMENT_SET_NO":"999","GP_ID":"195750679","RA_OF_ASC_NODE":"132.7381","PERIOD":"95.591","DECAY_DATE":null,"REV_AT_EPOCH":"8345","COUNTRY_CODE":"US","BSTAR":"0.00020060000000","TIME_SYSTEM":"UTC","ARG_OF_PERICENTER":"80.7658","CENTER_NAME":"EARTH","SEMIMAJOR_AXIS":"6925.308","TLE_LINE2":"2 46131  53.0541 132.7381 0001237  80.7658 279.3470 15.06413189 83457","MEAN_MOTION_DOT":"0.00002709","SITE":"AFETR","MEAN_MOTION_DDOT":"0.0000000000000","INCLINATION":"53.0541","OBJECT_TYPE":"PAYLOAD","OBJECT_ID":"2020-057Q","FILE":"3297735","APOAPSIS":"548.030","REF_FRAME":"TEME","MEAN_MOTION":"15.06413189","MEAN_ANOMALY":"279.3470","EPOCH":"2022-02-11T12:46:53.389632","PERIAPSIS":"546.316","OBJECT_NAME":"STARLINK-1625","ECCENTRICITY":"0.00012370","EPHEMERIS_TYPE":"0","RCS_SIZE":"LARGE","NORAD_CAT_ID":"46131","CLASSIFICATION_TYPE":"U","LAUNCH_DATE":"2020-08-18","TLE_LINE1":"1 46131U 20057Q   22042.53256238  .00002709  00000-0  20060-3 0  9992"},{"OBJECT_TYPE":"PAYLOAD","OBJECT_ID":"2020-057R","FILE":"3297735","APOAPSIS":"548.171","REF_FRAME":"TEME","MEAN_MOTION":"15.06408345","MEAN_ANOMALY":"289.4990","EPOCH":"2022-02-11T13:42:36.660960","PERIAPSIS":"546.205","OBJECT_NAME":"STARLINK-1630","ECCENTRICITY":"0.00014200","NORAD_CAT_ID":"46132","CLASSIFICATION_TYPE":"U","RCS_SIZE":"LARGE","EPHEMERIS_TYPE":"0","TLE_LINE1":"1 46132U 20057R   22042.57125765  .00002227  00000-0  16829-3 0  9990","LAUNCH_DATE":"2020-08-18","ELEMENT_SET_NO":"999","GP_ID":"195750929","MEAN_ELEMENT_THEORY":"SGP4","RA_OF_ASC_NODE":"152.5567","DECAY_DATE":null,"PERIOD":"95.592","REV_AT_EPOCH":"8318","COUNTRY_CODE":"US","BSTAR":"0.00016829000000","TIME_SYSTEM":"UTC","ARG_OF_PERICENTER":"70.6152","SEMIMAJOR_AXIS":"6925.323","CENTER_NAME":"EARTH","MEAN_MOTION_DOT":"0.00002227","SITE":"AFETR","TLE_LINE2":"2 46132  53.0538 152.5567 0001420  70.6152 289.4990 15.06408345 83188","INCLINATION":"53.0538","MEAN_MOTION_DDOT":"0.0000000000000"},{"NORAD_CAT_ID":"46133","CLASSIFICATION_TYPE":"U","RCS_SIZE":"LARGE","EPHEMERIS_TYPE":"0","TLE_LINE1":"1 46133U 20057S   22042.50492046  .00005773  00000-0  40593-3 0  9997","LAUNCH_DATE":"2020-08-18","EPOCH":"2022-02-11T12:07:05.127744","MEAN_ANOMALY":"299.7422","OBJECT_NAME":"STARLINK-1637","PERIAPSIS":"546.060","ECCENTRICITY":"0.00015920","REF_FRAME":"TEME","MEAN_MOTION":"15.06416608","OBJECT_ID":"2020-057S","OBJECT_TYPE":"PAYLOAD","FILE":"3297735","APOAPSIS":"548.265","MEAN_MOTION_DOT":"0.00005773","SITE":"AFETR","TLE_LINE2":"2 46133  53.0524 112.8419 0001592  60.3725 299.7422 15.06416608 83726","INCLINATION":"53.0524","MEAN_MOTION_DDOT":"0.0000000000000","TIME_SYSTEM":"UTC","ARG_OF_PERICENTER":"60.3725","SEMIMAJOR_AXIS":"6925.298","CENTER_NAME":"EARTH","COUNTRY_CODE":"US","REV_AT_EPOCH":"8372","BSTAR":"0.00040593000000","ELEMENT_SET_NO":"999","GP_ID":"195751180","MEAN_ELEMENT_THEORY":"SGP4","RA_OF_ASC_NODE":"112.8419","DECAY_DATE":null,"PERIOD":"95.591"},{"RCS_SIZE":"LARGE","EPHEMERIS_TYPE":"0","CLASSIFICATION_TYPE":"U","NORAD_CAT_ID":"46134","LAUNCH_DATE":"2020-08-18","TLE_LINE1":"1 46134U 20057T   22042.50860172  .00002555  00000-0  19028-3 0  9991","ECCENTRICITY":"0.00013510","PERIAPSIS":"546.245","OBJECT_NAME":"STARLINK-1638","MEAN_ANOMALY":"274.9490","EPOCH":"2022-02-11T12:12:23.188608","REF_FRAME":"TEME","MEAN_MOTION":"15.06410643","FILE":"3297735","OBJECT_TYPE":"PAYLOAD","OBJECT_ID":"2020-057T","APOAPSIS":"548.117","TLE_LINE2":"2 46134  53.0529 112.8291 0001351  85.1653 274.9490 15.06410643 82472","SITE":"AFETR","MEAN_MOTION_DOT":"0.00002555","MEAN_MOTION_DDOT":"0.0000000000000","INCLINATION":"53.0529","ARG_OF_PERICENTER":"85.1653","TIME_SYSTEM":"UTC","SEMIMAJOR_AXIS":"6925.316","CENTER_NAME":"EARTH","COUNTRY_CODE":"US","REV_AT_EPOCH":"8247","BSTAR":"0.00019028000000","MEAN_ELEMENT_THEORY":"SGP4","GP_ID":"195751431","ELEMENT_SET_NO":"999","PERIOD":"95.591","DECAY_DATE":null,"RA_OF_ASC_NODE":"112.8291"},{"RCS_SIZE":"LARGE","EPHEMERIS_TYPE":"0","NORAD_CAT_ID":"46135","CLASSIFICATION_TYPE":"U","TLE_LINE1":"1 46135U 20057U   22042.58969267  .00002168  00000-0  16437-3 0  9996","LAUNCH_DATE":"2020-08-18","MEAN_ANOMALY":"283.0603","EPOCH":"2022-02-11T14:09:09.446688","PERIAPSIS":"546.182","OBJECT_NAME":"STARLINK-1639","ECCENTRICITY":"0.00014460","REF_FRAME":"TEME","MEAN_MOTION":"15.06409824","OBJECT_TYPE":"PAYLOAD","OBJECT_ID":"2020-057U","FILE":"3297941","APOAPSIS":"548.185","TLE_LINE2":"2 46135  53.0538 112.4669 0001446  77.0547 283.0603 15.06409824 83146","MEAN_MOTION_DOT":"0.00002168","SITE":"AFETR","MEAN_MOTION_DDOT":"0.0000000000000","INCLINATION":"53.0538","TIME_SYSTEM":"UTC","ARG_OF_PERICENTER":"77.0547","CENTER_NAME":"EARTH","SEMIMAJOR_AXIS":"6925.318","REV_AT_EPOCH":"8314","COUNTRY_CODE":"US","BSTAR":"0.00016437000000","MEAN_ELEMENT_THEORY":"SGP4","ELEMENT_SET_NO":"999","GP_ID":"195761200","RA_OF_ASC_NODE":"112.4669","PERIOD":"95.592","DECAY_DATE":null},{"COUNTRY_CODE":"US","REV_AT_EPOCH":"8206","BSTAR":"0.00003573400000","MEAN_ELEMENT_THEORY":"SGP4","GP_ID":"195750429","ELEMENT_SET_NO":"999","DECAY_DATE":null,"PERIOD":"95.591","RA_OF_ASC_NODE":"142.5485","TLE_LINE2":"2 46136  53.0541 142.5485 0001542  73.0536 287.0622 15.06413222 82064","SITE":"AFETR","MEAN_MOTION_DOT":"0.00000251","MEAN_MOTION_DDOT":"0.0000000000000","INCLINATION":"53.0541","ARG_OF_PERICENTER":"73.0536","TIME_SYSTEM":"UTC","CENTER_NAME":"EARTH","SEMIMAJOR_AXIS":"6925.308","REF_FRAME":"TEME","MEAN_MOTION":"15.06413222","FILE":"3297735","OBJECT_ID":"2020-057V","OBJECT_TYPE":"PAYLOAD","APOAPSIS":"548.241","RCS_SIZE":"LARGE","EPHEMERIS_TYPE":"0","CLASSIFICATION_TYPE":"U","NORAD_CAT_ID":"46136","LAUNCH_DATE":"2020-08-18","TLE_LINE1":"1 46136U 20057V   22042.57218022  .00000251  00000-0  35734-4 0  9995","PERIAPSIS":"546.105","OBJECT_NAME":"STARLINK-1643","ECCENTRICITY":"0.00015420","MEAN_ANOMALY":"287.0622","EPOCH":"2022-02-11T13:43:56.371008"},{"EPOCH":"2022-02-11T17:22:53.122944","MEAN_ANOMALY":"287.0892","ECCENTRICITY":"0.00014620","PERIAPSIS":"546.169","OBJECT_NAME":"STARLINK-1586","RCS_SIZE":"LARGE","EPHEMERIS_TYPE":"0","NORAD_CAT_ID":"46137","CLASSIFICATION_TYPE":"U","LAUNCH_DATE":"2020-08-18","TLE_LINE1":"1 46137U 20057W   22042.72422596  .00004609  00000-0  32805-3 0  9992","OBJECT_ID":"2020-057W","OBJECT_TYPE":"PAYLOAD","FILE":"3297925","APOAPSIS":"548.194","REF_FRAME":"TEME","MEAN_MOTION":"15.06410308","TIME_SYSTEM":"UTC","ARG_OF_PERICENTER":"73.0257","SEMIMAJOR_AXIS":"6925.317","CENTER_NAME":"EARTH","TLE_LINE2":"2 46137  53.0548 131.8577 0001462  73.0257 287.0892 15.06410308 82887","MEAN_MOTION_DOT":"0.00004609","SITE":"AFETR","MEAN_MOTION_DDOT":"0.0000000000000","INCLINATION":"53.0548","MEAN_ELEMENT_THEORY":"SGP4","ELEMENT_SET_NO":"999","GP_ID":"195760643","RA_OF_ASC_NODE":"131.8577","PERIOD":"95.591","DECAY_DATE":null,"COUNTRY_CODE":"US","REV_AT_EPOCH":"8288","BSTAR":"0.00032805000000"},{"MEAN_MOTION_DDOT":"0.0000000000000","INCLINATION":"53.0533","TLE_LINE2":"2 46138  53.0533 151.5729 0001556  62.0660 298.0486 15.06427932 82613","MEAN_MOTION_DOT":"0.00003993","SITE":"AFETR","CENTER_NAME":"EARTH","SEMIMAJOR_AXIS":"6925.263","TIME_SYSTEM":"UTC","ARG_OF_PERICENTER":"62.0660","BSTAR":"0.00028660000000","REV_AT_EPOCH":"8261","COUNTRY_CODE":"US","RA_OF_ASC_NODE":"151.5729","PERIOD":"95.590","DECAY_DATE":null,"MEAN_ELEMENT_THEORY":"SGP4","ELEMENT_SET_NO":"999","GP_ID":"195756737","TLE_LINE1":"1 46138U 20057X   22042.78872644  .00003993  00000-0  28660-3 0  9991","LAUNCH_DATE":"2020-08-18","EPHEMERIS_TYPE":"0","RCS_SIZE":"LARGE","NORAD_CAT_ID":"46138","CLASSIFICATION_TYPE":"U","MEAN_ANOMALY":"298.0486","EPOCH":"2022-02-11T18:55:45.964416","ECCENTRICITY":"0.00015560","PERIAPSIS":"546.050","OBJECT_NAME":"STARLINK-1590","MEAN_MOTION":"15.06427932","REF_FRAME":"TEME","APOAPSIS":"548.206","OBJECT_ID":"2020-057X","OBJECT_TYPE":"PAYLOAD","FILE":"3297762"}];
